{
  "links" : {
    "next" : "https://api.nasa.gov/neo/rest/v1/feed?start_date=2008-04-16&end_date=2008-04-16&detailed=true&api_key=t0TVs3DtDT2H8Oy2Zy8m2eVrNsAVKAexjcZXUckd",
    "prev" : "https://api.nasa.gov/neo/rest/v1/feed?start_date=2008-04-14&end_date=2008-04-14&detailed=true&api_key=t0TVs3DtDT2H8Oy2Zy8m2eVrNsAVKAexjcZXUckd",
    "self" : "https://api.nasa.gov/neo/rest/v1/feed?start_date=2008-04-15&end_date=2008-04-15&detailed=true&api_key=t0TVs3DtDT2H8Oy2Zy8m2eVrNsAVKAexjcZXUckd"
  },
  "element_count" : 7,
  "near_earth_objects" : {
    "2008-04-15" : [ {
      "links" : {
        "self" : "https://api.nasa.gov/neo/rest/v1/neo/2434326?api_key=t0TVs3DtDT2H8Oy2Zy8m2eVrNsAVKAexjcZXUckd"
      },
      "neo_reference_id" : "2434326",
      "name" : "434326 (2004 JG6)",
      "nasa_jpl_url" : "http://ssd.jpl.nasa.gov/sbdb.cgi?sstr=2434326",
      "absolute_magnitude_h" : 18.4,
      "estimated_diameter" : {
        "kilometers" : {
          "estimated_diameter_min" : 0.5553349116,
          "estimated_diameter_max" : 1.2417666126
        },
        "meters" : {
          "estimated_diameter_min" : 555.334911581,
          "estimated_diameter_max" : 1241.766612574
        },
        "miles" : {
          "estimated_diameter_min" : 0.3450690093,
          "estimated_diameter_max" : 0.7715977618
        },
        "feet" : {
          "estimated_diameter_min" : 1821.9649913114,
          "estimated_diameter_max" : 4074.0375731972
        }
      },
      "is_potentially_hazardous_asteroid" : true,
      "close_approach_data" : [ {
        "close_approach_date" : "2008-04-15",
        "epoch_date_close_approach" : 1208242800000,
        "relative_velocity" : {
          "kilometers_per_second" : "20.0876215225",
          "kilometers_per_hour" : "72315.4374809842",
          "miles_per_hour" : "44934.0005836704"
        },
        "miss_distance" : {
          "astronomical" : "0.3377500138",
          "lunar" : "131.3847503662",
          "kilometers" : "50526684",
          "miles" : "31395826"
        },
        "orbiting_body" : "Earth"
      } ],
      "orbital_data" : {
        "orbit_id" : "33",
        "orbit_determination_date" : "2017-04-06 09:20:49",
        "orbit_uncertainty" : "1",
        "minimum_orbit_intersection" : ".03814",
        "jupiter_tisserand_invariant" : "8.751",
        "epoch_osculation" : "2458000.5",
        "eccentricity" : ".5311980211575074",
        "semi_major_axis" : ".6352164510266495",
        "inclination" : "18.94493054984403",
        "ascending_node_longitude" : "37.03187445787724",
        "orbital_period" : "184.9187855050641",
        "perihelion_distance" : ".2977907292345986",
        "perihelion_argument" : "352.9927365644639",
        "aphelion_distance" : ".9726421728187004",
        "perihelion_time" : "2458023.337663671835",
        "mean_anomaly" : "315.5396229787827",
        "mean_motion" : "1.946800586088324",
        "equinox" : "J2000"
      }
    }, {
      "links" : {
        "self" : "https://api.nasa.gov/neo/rest/v1/neo/3278402?api_key=t0TVs3DtDT2H8Oy2Zy8m2eVrNsAVKAexjcZXUckd"
      },
      "neo_reference_id" : "3278402",
      "name" : "(2005 KA)",
      "nasa_jpl_url" : "http://ssd.jpl.nasa.gov/sbdb.cgi?sstr=3278402",
      "absolute_magnitude_h" : 24.7,
      "estimated_diameter" : {
        "kilometers" : {
          "estimated_diameter_min" : 0.0305179233,
          "estimated_diameter_max" : 0.0682401509
        },
        "meters" : {
          "estimated_diameter_min" : 30.5179232594,
          "estimated_diameter_max" : 68.2401509401
        },
        "miles" : {
          "estimated_diameter_min" : 0.0189629525,
          "estimated_diameter_max" : 0.0424024508
        },
        "feet" : {
          "estimated_diameter_min" : 100.1244233463,
          "estimated_diameter_max" : 223.8850168104
        }
      },
      "is_potentially_hazardous_asteroid" : false,
      "close_approach_data" : [ {
        "close_approach_date" : "2008-04-15",
        "epoch_date_close_approach" : 1208242800000,
        "relative_velocity" : {
          "kilometers_per_second" : "17.1356721761",
          "kilometers_per_hour" : "61688.4198340036",
          "miles_per_hour" : "38330.7850907452"
        },
        "miss_distance" : {
          "astronomical" : "0.4193845454",
          "lunar" : "163.1405792236",
          "kilometers" : "62739036",
          "miles" : "38984228"
        },
        "orbiting_body" : "Earth"
      } ],
      "orbital_data" : {
        "orbit_id" : "15",
        "orbit_determination_date" : "2017-04-06 09:10:56",
        "orbit_uncertainty" : "0",
        "minimum_orbit_intersection" : ".0118219",
        "jupiter_tisserand_invariant" : "6.969",
        "epoch_osculation" : "2458000.5",
        "eccentricity" : ".2127186945259936",
        "semi_major_axis" : ".8414116326471931",
        "inclination" : "2.968786323461875",
        "ascending_node_longitude" : "225.516238794765",
        "orbital_period" : "281.9104629294483",
        "perihelion_distance" : ".6624276485914973",
        "perihelion_argument" : "182.4322048096083",
        "aphelion_distance" : "1.020395616702889",
        "perihelion_time" : "2457860.824001957218",
        "mean_anomaly" : "178.3664173826192",
        "mean_motion" : "1.277001201938697",
        "equinox" : "J2000"
      }
    }, {
      "links" : {
        "self" : "https://api.nasa.gov/neo/rest/v1/neo/3407944?api_key=t0TVs3DtDT2H8Oy2Zy8m2eVrNsAVKAexjcZXUckd"
      },
      "neo_reference_id" : "3407944",
      "name" : "(2008 GD)",
      "nasa_jpl_url" : "http://ssd.jpl.nasa.gov/sbdb.cgi?sstr=3407944",
      "absolute_magnitude_h" : 19.8,
      "estimated_diameter" : {
        "kilometers" : {
          "estimated_diameter_min" : 0.2914439045,
          "estimated_diameter_max" : 0.6516883822
        },
        "meters" : {
          "estimated_diameter_min" : 291.4439045349,
          "estimated_diameter_max" : 651.6883821679
        },
        "miles" : {
          "estimated_diameter_min" : 0.1810947904,
          "estimated_diameter_max" : 0.4049402617
        },
        "feet" : {
          "estimated_diameter_min" : 956.1808197541,
          "estimated_diameter_max" : 2138.0853117517
        }
      },
      "is_potentially_hazardous_asteroid" : false,
      "close_approach_data" : [ {
        "close_approach_date" : "2008-04-15",
        "epoch_date_close_approach" : 1208242800000,
        "relative_velocity" : {
          "kilometers_per_second" : "21.2643827631",
          "kilometers_per_hour" : "76551.7779472892",
          "miles_per_hour" : "47566.2978028587"
        },
        "miss_distance" : {
          "astronomical" : "0.3034683976",
          "lunar" : "118.0492095947",
          "kilometers" : "45398228",
          "miles" : "28209150"
        },
        "orbiting_body" : "Earth"
      } ],
      "orbital_data" : {
        "orbit_id" : "22",
        "orbit_determination_date" : "2017-04-06 09:03:51",
        "orbit_uncertainty" : "0",
        "minimum_orbit_intersection" : ".117307",
        "jupiter_tisserand_invariant" : "4.906",
        "epoch_osculation" : "2458000.5",
        "eccentricity" : ".7765953627328233",
        "semi_major_axis" : "1.197747169436027",
        "inclination" : "21.77340385753661",
        "ascending_node_longitude" : "31.94881815541783",
        "orbital_period" : "478.7911967074186",
        "perihelion_distance" : ".2675822719256433",
        "perihelion_argument" : "292.8493423590704",
        "aphelion_distance" : "2.12791206694641",
        "perihelion_time" : "2457972.673086527114",
        "mean_anomaly" : "20.92287602430696",
        "mean_motion" : ".7518935236814517",
        "equinox" : "J2000"
      }
    } ]
  }
}